start=new Date('2023-02-02T00:00:00.000Z').valueOf();
sats=[{"CENTER_NAME":"EARTH","FILE":"3767695","LAUNCH_DATE":"2022-09-11","MEAN_MOTION_DOT":"-0.00001180","ARG_OF_PERICENTER":"90.4214","DECAY_DATE":null,"PERIAPSIS":"538.709","ELEMENT_SET_NO":"999","CLASSIFICATION_TYPE":"U","REV_AT_EPOCH":"2200","MEAN_ELEMENT_THEORY":"SGP4","INCLINATION":"53.2185","MEAN_MOTION_DDOT":"0.0000000000000","SEMIMAJOR_AXIS":"6917.884","BSTAR":"-0.00005608700000","REF_FRAME":"TEME","SITE":"AFETR","EPHEMERIS_TYPE":"0","TLE_LINE2":"2 53794  53.2185 315.3969 0001503  90.4214 269.6951 15.08838852 22009","RA_OF_ASC_NODE":"315.3969","OBJECT_ID":"2022-111X","GP_ID":"224204592","COUNTRY_CODE":"US","EPOCH":"2023-02-01T17:46:08.166720","TLE_LINE1":"1 53794U 22111X   23032.74037230 -.00001180  00000-0 -56087-4 0  9993","APOAPSIS":"540.789","OBJECT_TYPE":"PAYLOAD","RCS_SIZE":"LARGE","PERIOD":"95.438","MEAN_MOTION":"15.08838852","OBJECT_NAME":"STARLINK-4730","ECCENTRICITY":"0.00015030","TIME_SYSTEM":"UTC","MEAN_ANOMALY":"269.6951","NORAD_CAT_ID":"53794"},{"MEAN_ANOMALY":"265.3045","NORAD_CAT_ID":"53795","ECCENTRICITY":"0.00014860","TIME_SYSTEM":"UTC","OBJECT_NAME":"STARLINK-4742","PERIOD":"95.437","MEAN_MOTION":"15.08848113","APOAPSIS":"540.749","OBJECT_TYPE":"PAYLOAD","RCS_SIZE":"LARGE","TLE_LINE1":"1 53795U 22111Y   23032.20307764  .00001296  00000-0  99482-4 0  9999","EPOCH":"2023-02-01T04:52:25.908096","COUNTRY_CODE":"US","GP_ID":"224200463","TLE_LINE2":"2 53795  53.2181 317.7249 0001486  94.8117 265.3045 15.08848113 22720","RA_OF_ASC_NODE":"317.7249","OBJECT_ID":"2022-111Y","SITE":"AFETR","EPHEMERIS_TYPE":"0","MEAN_MOTION_DDOT":"0.0000000000000","REF_FRAME":"TEME","BSTAR":"0.00009948200000","SEMIMAJOR_AXIS":"6917.856","REV_AT_EPOCH":"2272","MEAN_ELEMENT_THEORY":"SGP4","INCLINATION":"53.2181","CLASSIFICATION_TYPE":"U","ELEMENT_SET_NO":"999","ARG_OF_PERICENTER":"94.8117","PERIAPSIS":"538.693","DECAY_DATE":null,"FILE":"3767525","LAUNCH_DATE":"2022-09-11","CENTER_NAME":"EARTH","MEAN_MOTION_DOT":"0.00001296"},{"GP_ID":"224199211","RA_OF_ASC_NODE":"298.5751","OBJECT_ID":"2022-111Z","TLE_LINE2":"2 53796  53.2187 298.5751 0001149  94.5323 265.5800 15.08848127 23001","EPHEMERIS_TYPE":"0","SITE":"AFETR","SEMIMAJOR_AXIS":"6917.856","REF_FRAME":"TEME","BSTAR":"0.00001585500000","MEAN_MOTION_DDOT":"0.0000000000000","REV_AT_EPOCH":"2300","INCLINATION":"53.2187","MEAN_ELEMENT_THEORY":"SGP4","ELEMENT_SET_NO":"999","CLASSIFICATION_TYPE":"U","PERIAPSIS":"538.926","DECAY_DATE":null,"ARG_OF_PERICENTER":"94.5323","MEAN_MOTION_DOT":"-0.00000035","FILE":"3767525","LAUNCH_DATE":"2022-09-11","CENTER_NAME":"EARTH","NORAD_CAT_ID":"53796","MEAN_ANOMALY":"265.5800","ECCENTRICITY":"0.00011490","TIME_SYSTEM":"UTC","OBJECT_NAME":"STARLINK-4721","MEAN_MOTION":"15.08848127","PERIOD":"95.437","RCS_SIZE":"LARGE","APOAPSIS":"540.515","OBJECT_TYPE":"PAYLOAD","TLE_LINE1":"1 53796U 22111Z   23032.00987377 -.00000035  00000-0  15855-4 0  9995","COUNTRY_CODE":"US","EPOCH":"2023-02-01T00:14:13.093728"},{"INCLINATION":"53.2174","REV_AT_EPOCH":"2200","MEAN_ELEMENT_THEORY":"SGP4","CLASSIFICATION_TYPE":"U","ELEMENT_SET_NO":"999","PERIAPSIS":"538.943","DECAY_DATE":null,"ARG_OF_PERICENTER":"91.5411","MEAN_MOTION_DOT":"0.00001783","LAUNCH_DATE":"2022-09-11","FILE":"3767711","CENTER_NAME":"EARTH","GP_ID":"224204720","OBJECT_ID":"2022-111AA","RA_OF_ASC_NODE":"315.2761","TLE_LINE2":"2 53797  53.2174 315.2761 0001161  91.5411 268.5714 15.08839695 22001","SITE":"AFETR","EPHEMERIS_TYPE":"0","SEMIMAJOR_AXIS":"6917.881","BSTAR":"0.00013009000000","REF_FRAME":"TEME","MEAN_MOTION_DDOT":"0.0000000000000","RCS_SIZE":"LARGE","APOAPSIS":"540.549","OBJECT_TYPE":"PAYLOAD","TLE_LINE1":"1 53797U 22111AA  23032.72195255  .00001783  00000-0  13009-3 0  9999","COUNTRY_CODE":"US","EPOCH":"2023-02-01T17:19:36.700320","NORAD_CAT_ID":"53797","MEAN_ANOMALY":"268.5714","TIME_SYSTEM":"UTC","ECCENTRICITY":"0.00011610","OBJECT_NAME":"STARLINK-4723","PERIOD":"95.438","MEAN_MOTION":"15.08839695"},{"MEAN_MOTION_DDOT":"0.0000000000000","REF_FRAME":"TEME","BSTAR":"0.00001941000000","SEMIMAJOR_AXIS":"6917.846","SITE":"AFETR","EPHEMERIS_TYPE":"0","TLE_LINE2":"2 53798  53.2195 317.6793 0001152  87.3820 272.7304 15.08851243 22716","RA_OF_ASC_NODE":"317.6793","OBJECT_ID":"2022-111AB","GP_ID":"224200213","FILE":"3767525","LAUNCH_DATE":"2022-09-11","CENTER_NAME":"EARTH","MEAN_MOTION_DOT":"0.00000021","ARG_OF_PERICENTER":"87.3820","PERIAPSIS":"538.914","DECAY_DATE":null,"ELEMENT_SET_NO":"999","CLASSIFICATION_TYPE":"U","REV_AT_EPOCH":"2271","INCLINATION":"53.2195","MEAN_ELEMENT_THEORY":"SGP4","PERIOD":"95.437","MEAN_MOTION":"15.08851243","OBJECT_NAME":"STARLINK-4712","TIME_SYSTEM":"UTC","ECCENTRICITY":"0.00011520","MEAN_ANOMALY":"272.7304","NORAD_CAT_ID":"53798","EPOCH":"2023-02-01T04:41:48.861888","COUNTRY_CODE":"US","TLE_LINE1":"1 53798U 22111AB  23032.19570442  .00000021  00000-0  19410-4 0  9993","APOAPSIS":"540.508","OBJECT_TYPE":"PAYLOAD","RCS_SIZE":"LARGE"},{"ELEMENT_SET_NO":"999","CLASSIFICATION_TYPE":"U","REV_AT_EPOCH":"2209","MEAN_ELEMENT_THEORY":"SGP4","INCLINATION":"53.2170","MEAN_MOTION_DOT":"0.00000814","FILE":"3767695","CENTER_NAME":"EARTH","LAUNCH_DATE":"2022-09-11","DECAY_DATE":null,"PERIAPSIS":"538.940","ARG_OF_PERICENTER":"79.7191","OBJECT_ID":"2022-111AC","RA_OF_ASC_NODE":"306.3853","TLE_LINE2":"2 53799  53.2170 306.3853 0001129  79.7191 280.3928 15.08848070 22094","GP_ID":"224204585","SEMIMAJOR_AXIS":"6917.856","BSTAR":"0.00006922200000","REF_FRAME":"TEME","MEAN_MOTION_DDOT":"0.0000000000000","EPHEMERIS_TYPE":"0","SITE":"AFETR","RCS_SIZE":"LARGE","APOAPSIS":"540.502","OBJECT_TYPE":"PAYLOAD","COUNTRY_CODE":"US","EPOCH":"2023-02-01T13:17:13.283808","TLE_LINE1":"1 53799U 22111AC  23032.55362597  .00000814  00000-0  69222-4 0  9990","ECCENTRICITY":"0.00011290","TIME_SYSTEM":"UTC","NORAD_CAT_ID":"53799","MEAN_ANOMALY":"280.3928","PERIOD":"95.437","MEAN_MOTION":"15.08848070","OBJECT_NAME":"STARLINK-4710"},{"OBJECT_NAME":"STARLINK-4720","PERIOD":"95.437","MEAN_MOTION":"15.08851135","MEAN_ANOMALY":"259.9333","NORAD_CAT_ID":"53800","TIME_SYSTEM":"UTC","ECCENTRICITY":"0.00012180","TLE_LINE1":"1 53800U 22111AD  23032.15986617  .00000489  00000-0  48792-4 0  9991","EPOCH":"2023-02-01T03:50:12.437088","COUNTRY_CODE":"US","OBJECT_TYPE":"PAYLOAD","APOAPSIS":"540.554","RCS_SIZE":"LARGE","EPHEMERIS_TYPE":"0","SITE":"AFETR","MEAN_MOTION_DDOT":"0.0000000000000","BSTAR":"0.00004879200000","REF_FRAME":"TEME","SEMIMAJOR_AXIS":"6917.846","GP_ID":"224199711","TLE_LINE2":"2 53800  53.2171 308.1911 0001218 100.1796 259.9333 15.08851135 22843","RA_OF_ASC_NODE":"308.1911","OBJECT_ID":"2022-111AD","ARG_OF_PERICENTER":"100.1796","PERIAPSIS":"538.869","DECAY_DATE":null,"LAUNCH_DATE":"2022-09-11","FILE":"3767525","CENTER_NAME":"EARTH","MEAN_MOTION_DOT":"0.00000489","REV_AT_EPOCH":"2284","MEAN_ELEMENT_THEORY":"SGP4","INCLINATION":"53.2171","ELEMENT_SET_NO":"999","CLASSIFICATION_TYPE":"U"},{"RCS_SIZE":"LARGE","APOAPSIS":"540.573","OBJECT_TYPE":"PAYLOAD","TLE_LINE1":"1 53801U 22111AE  23032.14880751  .00001999  00000-0  14356-3 0  9998","EPOCH":"2023-02-01T03:34:16.968864","COUNTRY_CODE":"US","NORAD_CAT_ID":"53801","MEAN_ANOMALY":"282.9572","ECCENTRICITY":"0.00012650","TIME_SYSTEM":"UTC","OBJECT_NAME":"STARLINK-4715","PERIOD":"95.437","MEAN_MOTION":"15.08855668","REV_AT_EPOCH":"2284","INCLINATION":"53.2184","MEAN_ELEMENT_THEORY":"SGP4","ELEMENT_SET_NO":"999","CLASSIFICATION_TYPE":"U","DECAY_DATE":null,"PERIAPSIS":"538.822","ARG_OF_PERICENTER":"77.1562","MEAN_MOTION_DOT":"0.00001999","FILE":"3767525","LAUNCH_DATE":"2022-09-11","CENTER_NAME":"EARTH","GP_ID":"224199961","RA_OF_ASC_NODE":"308.1216","OBJECT_ID":"2022-111AE","TLE_LINE2":"2 53801  53.2184 308.1216 0001265  77.1562 282.9572 15.08855668 22848","SITE":"AFETR","EPHEMERIS_TYPE":"0","BSTAR":"0.00014356000000","REF_FRAME":"TEME","SEMIMAJOR_AXIS":"6917.832","MEAN_MOTION_DDOT":"0.0000000000000"},{"PERIOD":"95.437","MEAN_MOTION":"15.08851644","OBJECT_NAME":"STARLINK-4726","ECCENTRICITY":"0.00011980","TIME_SYSTEM":"UTC","MEAN_ANOMALY":"277.0645","NORAD_CAT_ID":"53802","COUNTRY_CODE":"US","EPOCH":"2023-02-01T03:39:36.254880","TLE_LINE1":"1 53802U 22111AF  23032.15250295  .00004575  00000-0  30525-3 0  9993","APOAPSIS":"540.539","OBJECT_TYPE":"PAYLOAD","RCS_SIZE":"LARGE","MEAN_MOTION_DDOT":"0.0000000000000","SEMIMAJOR_AXIS":"6917.845","REF_FRAME":"TEME","BSTAR":"0.00030525000000","SITE":"AFETR","EPHEMERIS_TYPE":"0","TLE_LINE2":"2 53802  53.2175 308.1425 0001198  83.0483 277.0645 15.08851644 22840","RA_OF_ASC_NODE":"308.1425","OBJECT_ID":"2022-111AF","GP_ID":"224200713","FILE":"3767525","LAUNCH_DATE":"2022-09-11","CENTER_NAME":"EARTH","MEAN_MOTION_DOT":"0.00004575","ARG_OF_PERICENTER":"83.0483","DECAY_DATE":null,"PERIAPSIS":"538.881","CLASSIFICATION_TYPE":"U","ELEMENT_SET_NO":"999","REV_AT_EPOCH":"2284","INCLINATION":"53.2175","MEAN_ELEMENT_THEORY":"SGP4"},{"APOAPSIS":"540.740","OBJECT_TYPE":"PAYLOAD","RCS_SIZE":"LARGE","EPOCH":"2023-02-01T02:52:41.786112","COUNTRY_CODE":"US","TLE_LINE1":"1 53803U 22111AG  23032.11992808  .00003167  00000-0  21694-3 0  9996","ECCENTRICITY":"0.00014910","TIME_SYSTEM":"UTC","MEAN_ANOMALY":"276.6562","NORAD_CAT_ID":"53803","MEAN_MOTION":"15.08852001","PERIOD":"95.437","OBJECT_NAME":"STARLINK-4727","CLASSIFICATION_TYPE":"U","ELEMENT_SET_NO":"999","INCLINATION":"53.2158","REV_AT_EPOCH":"2304","MEAN_ELEMENT_THEORY":"SGP4","LAUNCH_DATE":"2022-09-11","FILE":"3767525","CENTER_NAME":"EARTH","MEAN_MOTION_DOT":"0.00003167","ARG_OF_PERICENTER":"83.4600","PERIAPSIS":"538.677","DECAY_DATE":null,"TLE_LINE2":"2 53803  53.2158 293.6635 0001491  83.4600 276.6562 15.08852001 23048","RA_OF_ASC_NODE":"293.6635","OBJECT_ID":"2022-111AG","GP_ID":"224200464","MEAN_MOTION_DDOT":"0.0000000000000","REF_FRAME":"TEME","BSTAR":"0.00021694000000","SEMIMAJOR_AXIS":"6917.844","EPHEMERIS_TYPE":"0","SITE":"AFETR"}];
